[Satellite]
VERSION=1.1
NAME=GLOBALSTAR M092 [+]
NICKNAME=GLOBALSTAR M092 [+]
TLE1=1 38043U 11080D   15054.50445078 -.00000102  00000-0  11115-4 0  9993
TLE2=2 38043  52.0100  41.1913 0000346  32.3459 116.9622 12.62246630146477
